#dP2023  2  2  6  0  0.00000000      96 __u+U ITR00 EXT  IAC
## 2247 367200.00000000   900.00000000 59977 0.2500000000000
+  118   C06C07C08C09C10C11C12C13C14C16C19C20C21C22C23C24C25
+        C26C27C28C29C30C32C33C34C35C36C37C38C39C40C41C42C43
+        C44C45C46E01E02E03E04E05E07E08E09E10E11E12E14E15E18
+        E19E21E24E25E26E27E30E31E33E34E36G01G02G03G04G05G06
+        G07G08G09G10G11G12G13G14G15G16G17G18G19G20G21G22G23
+        G24G25G26G27G29G30G31G32J02J03J04R01R02R03R04R05R07
+        R08R09R11R12R13R14R15R16R17R18R19R20R21R22R24R25  0
++         9  9  9  9  9  9  9  9  9 10 10  9  8  9  8  8  9
++         8  8  7  7  7  9  8  9  8  8  8 10 11  9  8 10  9
++         9  9  9  8  8  8  7  8  7  8  7  7  8  8  8  8  8
++         8  7  8  8  8  7  8  8  8  8  8  8  7  7  9  8  8
++         8  7  8  7  8  7  8  7  8  8  8  7  9  8  8  7  7
++         7  8  8  8  9  8  7  8  9 11 11  8  7  8  9  7  8
++        10  8 10  7  9 10  8  7  8  7  9 10  7  7  8  8  0
%c M  cc GPS ccc cccc cccc cccc cccc ccccc ccccc ccccc ccccc
%c cc cc ccc ccc cccc cccc cccc cccc ccccc ccccc ccccc ccccc
%f  0.0000000  0.000000000  0.00000000000  0.000000000000000
%f  0.0000000  0.000000000  0.00000000000  0.000000000000000
%i    0    0    0    0      0      0      0      0         0
%i    0    0    0    0      0      0      0      0         0
/* IAC                                ULTRA-RAPID PREDICTION
/* S/V CLOCKS ARE ALIGNED TO GNSS TIME                      
/* G:C1WC2W R:C1PC2P E:C1XC5X C:C2IC6I J:C1CC2S             
/* PCV:IGS20_2239 OL/AL:FES2004  NONE     YN ORB:CoN CLK:CoN
*  2023 02 03  4 15  0.00000000
PC06 -17885.097073  27800.788148  26021.431947   -189.614171
PC07  -7764.158864  40531.262575   9071.471685    169.104913
PC08    293.547249  24056.905126 -34566.890119    527.439049
PC09  -8900.078900  27064.726777  31297.945063    520.729128
PC10  -3024.292052  42185.225031   3772.634696     19.358018
PC11  -3416.079547 -15584.165959  22964.779546   -142.041073
PC12  14747.429572 -19508.986866  13480.467811    431.630835
PC13   5237.161903  26957.785145 -31737.013976    198.690297
PC14  -6678.542384 -25892.276079  -7869.655446    437.174170
PC16 -19139.363714  27543.206789  25568.496960     67.912033
PC19  11826.407816  19661.902972  15922.830326   -895.049744
PC20   1585.488454  27873.150192    357.460575    740.534440
PC21  10462.433738 -19794.984835  16662.444551   -912.779672
PC22  15739.212700   -256.476771  23044.440036   -652.603990
PC23 -25611.746305  -5441.641226   9659.669707   -874.682472
PC24  -3014.764324 -18439.096314 -20757.119826   -459.281897
PC25 -21661.690859 -16171.960528  -6988.726615     65.752947
PC26  14372.025816 -10276.898024 -21610.536070    -73.361394
PC27 -20840.309800  17664.035488  -5668.337201     91.084690
PC28 -24831.416455   6608.986160  10890.051732     66.141515
PC29  14169.703319   9105.485870 -22254.313262     75.969360
PC30  -5052.207979  19608.580028 -19195.280007      1.219536
PC32 -10323.682085  19846.880159 -16668.931922   -632.194310
PC33 -11903.131978 -19663.612916 -15809.143525   -875.562928
PC34   3837.449830 -19307.373112  19781.139488     97.714206
PC35  24414.240424  -6463.988682 -11926.701889    686.948166
PC36  20828.927557  16935.215845   7616.268339   -650.932509
PC37 -15906.059054   8900.940181  21141.983628   -830.428644
PC38  -9287.520851  21345.467728 -35095.933158     56.220628
PC39 -24712.157116  27911.156897  19504.659428     -1.676599
PC40 -12946.905378  38308.888412  12313.120142    -14.145056
PC41 -15775.341019   -385.937674 -22961.760223   -567.238377
PC42   -743.958887 -27870.431283    978.649805   -858.509389
PC43 -13482.128839  -9861.803573  22344.157488      5.263859
PC44  20323.868311 -18367.632536   5412.856711      3.432432
PC45  25494.729960   5162.627881 -10077.156078    -55.611633
PC46   4918.632608  18717.220146  20080.223033    -30.808111
PE01 -16034.075482   5563.682914  24246.687196   -599.829064
PE02  15793.429890  -6035.756138 -24303.518333     18.518492
PE03  20008.928946 -17209.619737  13392.905253   -646.237413
PE04 -11093.181118  27076.858506   4460.831209    -49.992371
PE05  17358.562013   3026.535671  23786.342222    -99.030766
PE07  -4529.775081 -21263.300110 -20082.124647    -20.033347
PE08  11150.361682 -27069.615429  -4345.406583    -29.850814
PE09   4310.757697  21340.518991  20059.603558   -822.607375
PE10   1443.620213  15977.482877 -24875.739362   -509.647640
PE11  13626.212976  14012.425336 -22237.811643    729.074310
PE12  -9795.453881  15397.793015 -23295.321622   -407.954322
PE14 -19608.752690  22358.007113   3648.033536    131.409861
PE15  10175.990568 -15287.466932  23228.051689    689.885714
PE18  21085.973162 -10919.811556 -12605.076814   -435.228710
PE19 -20359.217570  14852.501132 -15516.397956  -3328.905939
PE21 -21008.126858 -13083.653384  16238.147899   -509.945993
PE24  13797.079714  26054.969444   2430.711831  -1093.129137
PE25  20997.990783  13359.083031 -16016.283248   -598.561751
PE26 -28144.267568  -4415.412313   8042.169923      7.220929
PE27 -14424.300997 -25807.165084  -1635.653086   -503.071286
PE30   1269.368115 -22872.227406 -18773.464406  -1211.716933
PE31   -597.248763  23196.397149  18371.830274   -515.009848
PE33 -26848.377771   7333.337259 -10050.566453   -452.859288
PE34  26754.725501  -7483.876888  10212.383324    -28.116913
PE36  27846.046225   4796.523249  -8831.490199     -6.753155
PG01  13028.788006  13396.704782 -19327.696200    216.903496
PG02 -16093.014080 -11755.875034  18073.601271   -623.351221
PG03  12697.911060  23394.168671    400.043622   -367.190525
PG04   5578.122462  16573.690346  19965.368635    -35.616530
PG05  -2621.195789 -22665.205752  13325.521670   -114.432599
PG06  23638.527468  -6021.486789  10688.072465    567.663431
PG07  24182.295911   7529.026253   9213.196003    247.920215
PG08  -3600.033611  23060.776345 -12354.858128   -106.645622
PG09  14222.887889   5889.180764  21570.815796   -225.201453
PG10 -16148.590271   -198.747371 -20975.711917    -23.090534
PG11  12865.005669 -12506.545470  19584.274194    -94.258927
PG12 -10006.393007 -24645.338726  -1216.158174   -335.735513
PG13  11961.684526 -22409.723499  -7583.065614    469.902070
PG14  17316.653079   2920.279774 -19956.519268    -35.876052
PG15    170.148094 -23412.484964 -12727.887344     10.127881
PG16  -2273.853704  21346.330530  15031.143191   -521.657140
PG17  19113.849553  -7641.370182 -16405.064414    697.589474
PG18 -25539.673772  -5161.238416   5536.733578   -124.876497
PG19  19619.561105 -15638.263013  -8512.219999    272.603106
PG20   5911.730442 -16260.164592  20237.359120    453.089577
PG21   4746.451876  14571.179959 -21176.639679    153.800963
PG22 -18001.525018  18743.813162  -4579.261699    419.222837
PG23 -18511.265273 -11649.798320 -15166.239323      4.630311
PG24  -9133.308015 -14764.763427 -20545.103467    -57.522215
PG25 -16383.718168 -19798.521002   6951.849880    416.848902
PG26 -11259.711191  11368.537837  21052.797786    241.128602
PG27 -12281.168411  23168.426184  -2632.024516    111.532776
PG29 -11331.393621  -9569.387779  21983.994674   -584.004113
PG30  26478.975269  -1103.643413  -3165.173622   -531.501387
PG31 -22941.229717   6988.479153  11727.812959   -208.163572
PG32 -18898.022594  10872.844273 -14864.982461   -384.336014
PJ02 -26213.970176  22349.878565  29349.663138     -0.764666
PJ03 -34949.965247  20267.105636  -7503.293835      0.081457
PJ04 -18043.112975  31917.748341 -15773.431051    121.769145
PR01  -5881.433176  23913.151174  -6668.758655     22.370096
PR02   2458.239161  22327.829196  12066.788204    -23.313549
PR03   9623.973353   7631.419537  22393.733997     71.836253
PR04  11095.948382 -10891.415171  20256.350348    174.351731
PR05   6781.470737 -23572.134681   7066.155454    107.150296
PR07  -9759.796903  -6919.103605 -22494.800703     49.184557
PR08 -11087.040505  11103.783195 -20040.937475    -69.312669
PR09 -14353.468079 -17628.161984 -11483.406869    102.029265
PR11 -16862.178805  -1333.491770  19093.391903     -0.164537
PR12  -1485.398263  12328.414975  22295.848034     24.766519
PR13  13075.347174  17595.952906  13014.601790    -31.598722
PR14  21366.866764  12757.054904  -5629.392215     24.330422
PR15  16253.708161    569.908390 -19638.515447     91.337080
PR16   1628.508776 -12017.047840 -22435.181971     10.798155
PR17  19412.660421    289.201975 -16512.848664    601.467386
PR18  23948.904889  -8781.278396  -1224.673321     64.919036
PR19  17432.927054 -12695.995015  13628.696676   -220.508353
PR20  -2638.697899 -10040.790784  23313.217810    -87.018348
PR21 -20417.837838    649.408952  15294.261289   -370.370581
PR22 -24132.730490   8224.085985    447.664752     69.382116
PR24   3835.724650  10113.131150 -23079.643276    144.075319
PR25 -19266.553790  -1615.927990  16656.458258     53.382184
EOF
